{"type": "FeatureCollection", "features": [ {"type": "Feature", "properties": {"norad_id": 34077, "name": "IRIDIUM 33 DEB", "group": "iridium-33-debris", "lat": -45.799506069556884, "lon": 52.37981718329407, "alt_km": 689.0218846896778, "timestamp": "2025-12-02T07:10:09.500865+00:00", "meta": {"OBJECT_NAME": "IRIDIUM 33 DEB", "OBJECT_ID": "1997-051CL", "EPOCH": "2025-12-01T18:50:15.130176", "MEAN_MOTION": 14.6453586, "ECCENTRICITY": 0.0011041, "INCLINATION": 86.3871, "RA_OF_ASC_NODE": 56.3311, "ARG_OF_PERICENTER": 73.7314, "MEAN_ANOMALY": 53.2582, "EPHEMERIS_TYPE": 0, "CLASSIFICATION_TYPE": "U", "NORAD_CAT_ID": 34077, "ELEMENT_SET_NO": 999, "REV_AT_EPOCH": 88172, "BSTAR": 0.001689, "MEAN_MOTION_DOT": 8.988e-05, "MEAN_MOTION_DDOT": 0}, "tle": {"line1": "1 34077U 97051CL  25335.78489734  .00008988  00000+0  16890-2 0  9999", "line2": "2 34077  86.3871  56.3311 0011041  73.7314  53.2582 14.64535860881720"}}, "geometry": {"type": "Point", "coordinates": [52.37981718329407, -45.799506069556884]}}, {"type": "Feature", "properties": {"norad_id": 34079, "name": "IRIDIUM 33 DEB", "group": "iridium-33-debris", "lat": -32.45601559326971, "lon": 11.101367763124452, "alt_km": 624.2954748750481, "timestamp": "2025-12-02T07:10:09.500890+00:00", "meta": {"OBJECT_NAME": "IRIDIUM 33 DEB", "OBJECT_ID": "1997-051CN", "EPOCH": "2025-12-01T20:46:35.598720", "MEAN_MOTION": 14.83079582, "ECCENTRICITY": 0.0006838, "INCLINATION": 86.379, "RA_OF_ASC_NODE": 13.6062, "ARG_OF_PERICENTER": 40.6061, "MEAN_ANOMALY": 136.576, "EPHEMERIS_TYPE": 0, "CLASSIFICATION_TYPE": "U", "NORAD_CAT_ID": 34079, "ELEMENT_SET_NO": 999, "REV_AT_EPOCH": 88816, "BSTAR": 0.0015204, "MEAN_MOTION_DOT": 0.00012414, "MEAN_MOTION_DDOT": 0}, "tle": {"line1": "1 34079U 97051CN  25335.86568980  .00012414  00000+0  15204-2 0  9998", "line2": "2 34079  86.3790  13.6062 0006838  40.6061 136.5760 14.83079582888164"}}, "geometry": {"type": "Point", "coordinates": [11.101367763124452, -32.45601559326971]}}, {"type": "Feature", "properties": {"norad_id": 34088, "name": "IRIDIUM 33 DEB", "group": "iridium-33-debris", "lat": 48.74527747835334, "lon": -148.6130606222885, "alt_km": 591.6822056695783, "timestamp": "2025-12-02T07:10:09.500902+00:00", "meta": {"OBJECT_NAME": "IRIDIUM 33 DEB", "OBJECT_ID": "1997-051CX", "EPOCH": "2025-12-01T16:38:18.786336", "MEAN_MOTION": 14.90512299, "ECCENTRICITY": 0.0005101, "INCLINATION": 86.3866, "RA_OF_ASC_NODE": 35.796, "ARG_OF_PERICENTER": 218.5802, "MEAN_ANOMALY": 265.9168, "EPHEMERIS_TYPE": 0, "CLASSIFICATION_TYPE": "U", "NORAD_CAT_ID": 34088, "ELEMENT_SET_NO": 999, "REV_AT_EPOCH": 88577, "BSTAR": 0.0025052, "MEAN_MOTION_DOT": 0.00024547, "MEAN_MOTION_DDOT": 0}, "tle": {"line1": "1 34088U 97051CX  25335.69327299  .00024547  00000+0  25052-2 0  9997", "line2": "2 34088  86.3866  35.7960 0005101 218.5802 265.9168 14.90512299885779"}}, "geometry": {"type": "Point", "coordinates": [-148.6130606222885, 48.74527747835334]}}, {"type": "Feature", "properties": {"norad_id": 34091, "name": "IRIDIUM 33 DEB", "group": "iridium-33-debris", "lat": -35.715780803822554, "lon": 68.9736470739771, "alt_km": 611.3298390745404, "timestamp": "2025-12-02T07:10:09.500913+00:00", "meta": {"OBJECT_NAME": "IRIDIUM 33 DEB", "OBJECT_ID": "1997-051DA", "EPOCH": "2025-12-01T18:21:08.453088", "MEAN_MOTION": 14.80452888, "ECCENTRICITY": 0.0032842, "INCLINATION": 86.342, "RA_OF_ASC_NODE": 71.854, "ARG_OF_PERICENTER": 332.8724, "MEAN_ANOMALY": 27.078, "EPHEMERIS_TYPE": 0, "CLASSIFICATION_TYPE": "U", "NORAD_CAT_ID": 34091, "ELEMENT_SET_NO": 999, "REV_AT_EPOCH": 87704, "BSTAR": 0.0048913, "MEAN_MOTION_DOT": 0.0003792, "MEAN_MOTION_DDOT": 0}, "tle": {"line1": "1 34091U 97051DA  25335.76468117  .00037920  00000+0  48913-2 0  9994", "line2": "2 34091  86.3420  71.8540 0032842 332.8724  27.0780 14.80452888877043"}}, "geometry": {"type": "Point", "coordinates": [68.9736470739771, -35.715780803822554]}}, {"type": "Feature", "properties": {"norad_id": 34097, "name": "IRIDIUM 33 DEB", "group": "iridium-33-debris", "lat": 22.186082833620237, "lon": -175.5363695186265, "alt_km": 807.1403075436356, "timestamp": "2025-12-02T07:10:09.500924+00:00", "meta": {"OBJECT_NAME": "IRIDIUM 33 DEB", "OBJECT_ID": "1997-051DG", "EPOCH": "2025-12-01T12:01:47.968896", "MEAN_MOTION": 14.34641862, "ECCENTRICITY": 0.0083867, "INCLINATION": 86.2013, "RA_OF_ASC_NODE": 6.3679, "ARG_OF_PERICENTER": 38.6075, "MEAN_ANOMALY": 322.1076, "EPHEMERIS_TYPE": 0, "CLASSIFICATION_TYPE": "U", "NORAD_CAT_ID": 34097, "ELEMENT_SET_NO": 999, "REV_AT_EPOCH": 86958, "BSTAR": 0.0014483124, "MEAN_MOTION_DOT": 4.279e-05, "MEAN_MOTION_DDOT": 0}, "tle": {"line1": "1 34097U 97051DG  25335.50124964  .00004279  00000+0  14483-2 0  9997", "line2": "2 34097  86.2013   6.3679 0083867  38.6075 322.1076 14.34641862869583"}}, "geometry": {"type": "Point", "coordinates": [-175.5363695186265, 22.186082833620237]}}, {"type": "Feature", "properties": {"norad_id": 34145, "name": "IRIDIUM 33 DEB", "group": "iridium-33-debris", "lat": 35.68435275186343, "lon": 154.45038084884027, "alt_km": 711.3906558011677, "timestamp": "2025-12-02T07:10:09.500934+00:00", "meta": {"OBJECT_NAME": "IRIDIUM 33 DEB", "OBJECT_ID": "1997-051DY", "EPOCH": "2025-12-01T10:31:25.129056", "MEAN_MOTION": 14.42165387, "ECCENTRICITY": 0.00551446, "INCLINATION": 86.2119, "RA_OF_ASC_NODE": 337.5605, "ARG_OF_PERICENTER": 129.8004, "MEAN_ANOMALY": 230.807, "EPHEMERIS_TYPE": 0, "CLASSIFICATION_TYPE": "U", "NORAD_CAT_ID": 34145, "ELEMENT_SET_NO": 999, "REV_AT_EPOCH": 87475, "BSTAR": 0.0011229565, "MEAN_MOTION_DOT": 3.783e-05, "MEAN_MOTION_DDOT": 0}, "tle": {"line1": "1 34145U 97051DY  25335.43848529  .00003783  00000+0  11230-2 0  9999", "line2": "2 34145  86.2119 337.5605 0055144 129.8004 230.8070 14.42165387874750"}}, "geometry": {"type": "Point", "coordinates": [154.45038084884027, 35.68435275186343]}}, {"type": "Feature", "properties": {"norad_id": 34146, "name": "IRIDIUM 33 DEB", "group": "iridium-33-debris", "lat": -67.60536622389186, "lon": -176.5122025940313, "alt_km": 719.1141848322732, "timestamp": "2025-12-02T07:10:09.500945+00:00", "meta": {"OBJECT_NAME": "IRIDIUM 33 DEB", "OBJECT_ID": "1997-051DZ", "EPOCH": "2025-12-01T12:29:48.186240", "MEAN_MOTION": 14.48922256, "ECCENTRICITY": 0.00249505, "INCLINATION": 86.2841, "RA_OF_ASC_NODE": 354.7569, "ARG_OF_PERICENTER": 261.9495, "MEAN_ANOMALY": 250.2765, "EPHEMERIS_TYPE": 0, "CLASSIFICATION_TYPE": "U", "NORAD_CAT_ID": 34146, "ELEMENT_SET_NO": 999, "REV_AT_EPOCH": 87944, "BSTAR": 0.0011238523, "MEAN_MOTION_DOT": 4.289e-05, "MEAN_MOTION_DDOT": 0}, "tle": {"line1": "1 34146U 97051DZ  25335.52069660  .00004289  00000+0  11239-2 0  9992", "line2": "2 34146  86.2841 354.7569 0024950 261.9495 250.2765 14.48922256879446"}}, "geometry": {"type": "Point", "coordinates": [-176.5122025940313, -67.60536622389186]}}, {"type": "Feature", "properties": {"norad_id": 34159, "name": "IRIDIUM 33 DEB", "group": "iridium-33-debris", "lat": -2.424972676329913, "lon": 52.537565880991416, "alt_km": 751.0761434688548, "timestamp": "2025-12-02T07:10:09.500955+00:00", "meta": {"OBJECT_NAME": "IRIDIUM 33 DEB", "OBJECT_ID": "1997-051EN", "EPOCH": "2025-12-01T14:29:07.196928", "MEAN_MOTION": 14.38447041, "ECCENTRICITY": 0.00266116, "INCLINATION": 86.3516, "RA_OF_ASC_NODE": 52.9886, "ARG_OF_PERICENTER": 326.7615, "MEAN_ANOMALY": 33.191, "EPHEMERIS_TYPE": 0, "CLASSIFICATION_TYPE": "U", "NORAD_CAT_ID": 34159, "ELEMENT_SET_NO": 999, "REV_AT_EPOCH": 87799, "BSTAR": 0.00044184185, "MEAN_MOTION_DOT": 1.372e-05, "MEAN_MOTION_DDOT": 0}, "tle": {"line1": "1 34159U 97051EN  25335.60355552  .00001372  00000+0  44184-3 0  9999", "line2": "2 34159  86.3516  52.9886 0026611 326.7615  33.1910 14.38447041877990"}}, "geometry": {"type": "Point", "coordinates": [52.537565880991416, -2.424972676329913]}}, {"type": "Feature", "properties": {"norad_id": 34350, "name": "IRIDIUM 33 DEB", "group": "iridium-33-debris", "lat": 52.43441648834012, "lon": -177.45102002467715, "alt_km": 724.3969695322203, "timestamp": "2025-12-02T07:10:09.500966+00:00", "meta": {"OBJECT_NAME": "IRIDIUM 33 DEB", "OBJECT_ID": "1997-051ES", "EPOCH": "2025-12-01T14:32:17.689056", "MEAN_MOTION": 14.45345395, "ECCENTRICITY": 0.00216675, "INCLINATION": 86.3284, "RA_OF_ASC_NODE": 7.6383, "ARG_OF_PERICENTER": 170.4915, "MEAN_ANOMALY": 313.6705, "EPHEMERIS_TYPE": 0, "CLASSIFICATION_TYPE": "U", "NORAD_CAT_ID": 34350, "ELEMENT_SET_NO": 999, "REV_AT_EPOCH": 88132, "BSTAR": 0.00033636786, "MEAN_MOTION_DOT": 1.205e-05, "MEAN_MOTION_DDOT": 0}, "tle": {"line1": "1 34350U 97051ES  25335.60576029  .00001205  00000+0  33637-3 0  9992", "line2": "2 34350  86.3284   7.6383 0021667 170.4915 313.6705 14.45345395881324"}}, "geometry": {"type": "Point", "coordinates": [-177.45102002467715, 52.43441648834012]}}, {"type": "Feature", "properties": {"norad_id": 34366, "name": "IRIDIUM 33 DEB", "group": "iridium-33-debris", "lat": 47.782583173223465, "lon": -130.1583897950319, "alt_km": 697.2834508785281, "timestamp": "2025-12-02T07:10:09.500976+00:00", "meta": {"OBJECT_NAME": "IRIDIUM 33 DEB", "OBJECT_ID": "1997-051FJ", "EPOCH": "2025-12-01T17:56:27.538080", "MEAN_MOTION": 14.53886332, "ECCENTRICITY": 0.0021585, "INCLINATION": 86.3708, "RA_OF_ASC_NODE": 54.0924, "ARG_OF_PERICENTER": 175.1506, "MEAN_ANOMALY": 314.0066, "EPHEMERIS_TYPE": 0, "CLASSIFICATION_TYPE": "U", "NORAD_CAT_ID": 34366, "ELEMENT_SET_NO": 999, "REV_AT_EPOCH": 88022, "BSTAR": 0.0012466, "MEAN_MOTION_DOT": 5.277e-05, "MEAN_MOTION_DDOT": 0}, "tle": {"line1": "1 34366U 97051FJ  25335.74754095  .00005277  00000+0  12466-2 0  9994", "line2": "2 34366  86.3708  54.0924 0021585 175.1506 314.0066 14.53886332880229"}}, "geometry": {"type": "Point", "coordinates": [-130.1583897950319, 47.782583173223465]}}]}